STARLINK-5933           
1 55961U 23037AZ  26159.07114025  .00000891  00000+0  82481-4 0  9998
2 55961  69.9995  36.4878 0002970 271.2151  88.8667 14.98331706178010
STARLINK-5906           
1 55962U 23037BA  26159.04195092 -.00001129  00000+0 -86848-4 0  9997
2 55962  70.0004  36.7821 0002870 268.8358  91.2472 14.98323218178006
STARLINK-5924           
1 55963U 23037BB  26159.01273026  .00000597  00000+0  57863-4 0  9990
2 55963  69.9998  36.6861 0002846 271.4178  88.6655 14.98330581178006
STARLINK-5895           
1 55964U 23037BC  26159.02787556  .00016822  00000+0  10300-2 0  9991
2 55964  69.9965  29.0774 0004687 201.5637 158.5331 15.10241628178195
STARLINK-5894           
1 55965U 23037BD  26159.06279513 -.00000526  00000+0 -36316-4 0  9998
2 55965  69.9996  36.4587 0002974 269.1741  90.9077 14.98325778178018
SES-18                  
1 55970U 23038A   26158.89551903 -.00000086  00000+0  00000+0 0  9997
2 55970   0.0175 322.5110 0000310  30.8280 122.2529  1.00271668 12018
SES-19                  
1 55971U 23038B   26159.24573119  .00000103  00000+0  00000+0 0  9990
2 55971   0.0209 302.2722 0001715 138.7590 129.1728  1.00271614 12000
TIANMU-1 03             
1 55973U 23039A   26159.31881722  .00013343  00000+0  26572-3 0  9999
2 55973  97.5239 332.9429 0004113 120.9236 239.2418 15.47032106179465
TIANMU-1 04             
1 55974U 23039B   26159.31169484  .00013799  00000+0  26917-3 0  9992
2 55974  97.5175 332.0887 0004731 118.1143 242.0586 15.47620656179478
TIANMU-1 05             
1 55975U 23039C   26159.29915823  .00013061  00000+0  26081-3 0  9990
2 55975  97.5217 332.5410 0003815 135.6717 224.4839 15.46957315179442
TIANMU-1 06             
1 55976U 23039D   26159.31453226  .00013696  00000+0  26807-3 0  9998
2 55976  97.5227 333.1836 0004030 132.4106 227.7485 15.47528035179470
COSMOS 2567             
1 55978U 23040A   26159.30117413  .00003491  00000+0  14359-3 0  9997
2 55978  97.5888  85.3311 0002757  99.7748 260.3801 15.24837730178700
GLOBAL-19               
1 55982U 23041B   26158.55212232  .00013817  00000+0  36664-3 0  9990
2 55982  42.0071 258.0671 0011377 294.4113  65.5539 15.38030479180447
GLOBAL-5                
1 55983U 23041C   26158.00067075  .00019336  00000+0  50756-3 0  9994
2 55983  42.0032 260.8112 0010337 287.5684  72.4026 15.38179031180364
STARLINK-5905           
1 55986U 23042A   26158.57901407  .00001167  00000+0  51915-4 0  9998
2 55986  43.0031 272.2236 0001731 275.3424  84.7230 15.27583295177432
STARLINK-5915           
1 55987U 23042B   26159.01616772 -.00000205  00000+0  20649-5 0  9991
2 55987  42.9979 269.5011 0001166 269.5304  90.5414 15.27574467176682
STARLINK-5916           
1 55988U 23042C   26159.00168944  .00000086  00000+0  12651-4 0  9993
2 55988  43.0036 273.6632 0001867 270.6582  89.4056 15.27574130176634
STARLINK-5947           
1 55989U 23042D   26159.01229925 -.00004966  00000+0 -17093-3 0  9999
2 55989  43.0052 269.4743 0002531 292.5063  67.5520 15.27596869176686
STARLINK-5946           
1 55990U 23042E   26159.00203801 -.00000140  00000+0  44180-5 0  9993
2 55990  43.0022 269.3989 0001171 273.7787  86.2931 15.27570732176684
STARLINK-5948           
1 55991U 23042F   26159.01407955 -.00006535  00000+0 -22813-3 0  9993
2 55991  43.0051 266.0764 0001313 292.6534  67.4179 15.27583976176724
STARLINK-5969           
1 55993U 23042H   26159.00845714 -.00000762  00000+0 -18163-4 0  9993
2 55993  42.9983 269.4458 0001656 269.2653  90.8009 15.27578246176688
STARLINK-5956           
1 55994U 23042J   26157.05842713 -.00000183  00000+0  28921-5 0  9993
2 55994  43.0047 280.6063 0001821 271.1317  88.9326 15.27576132176381
STARLINK-5903           
1 55996U 23042L   26158.99688980 -.00001217  00000+0 -34689-4 0  9990
2 55996  43.0005 269.3553 0001539 271.9234  88.1442 15.27585177176679
STARLINK-5902           
1 55998U 23042N   26159.00074778 -.00000371  00000+0 -39564-5 0  9997
2 55998  43.0016 269.3792 0000952 260.7980  99.2764 15.27573438176688
STARLINK-5901           
1 55999U 23042P   26158.04693007  .00000298  00000+0  20344-4 0  9994
2 55999  43.0038 275.1208 0001641 267.0396  93.0268 15.27579025176530
STARLINK-5910           
1 56000U 23042Q   26159.01102335  .00000700  00000+0  34965-4 0  9997
2 56000  43.0070 269.4511 0000689 277.0593  83.0180 15.27576792176680
STARLINK-5944           
1 56001U 23042R   26159.00554457  .00000501  00000+0  27745-4 0  9990
2 56001  42.9995 273.6787 0001345 281.2230  78.8470 15.27571135176637
STARLINK-5799           
1 56002U 23042S   26159.00717851 -.00004110  00000+0 -13989-3 0  9996
2 56002  43.0045 269.4252 0001451 266.5641  93.5045 15.27579388176681
STARLINK-5789           
1 56003U 23042T   26158.05464808  .00000877  00000+0  41414-4 0  9991
2 56003  43.0031 275.1696 0001974 270.4359  89.6266 15.27580144176530
STARLINK-5787           
1 56004U 23042U   26158.63106724  .00000188  00000+0  16362-4 0  9995
2 56004  43.0006 275.1772 0001132 267.6440  92.4282 15.27572693176588
