OBJECT_NAME,OBJECT_ID,EPOCH,MEAN_MOTION,ECCENTRICITY,INCLINATION,RA_OF_ASC_NODE,ARG_OF_PERICENTER,MEAN_ANOMALY,EPHEMERIS_TYPE,CLASSIFICATION_TYPE,NORAD_CAT_ID,ELEMENT_SET_NO,REV_AT_EPOCH,BSTAR,MEAN_MOTION_DOT,MEAN_MOTION_DDOT
STARLINK-5933,2023-037AZ,2026-06-08T01:42:26.517600,14.98331706,.00029704,69.9995,36.4878,271.2151,88.8667,0,U,55961,999,17801,.82481492E-4,.891E-5,0
STARLINK-5906,2023-037BA,2026-06-08T01:00:24.559488,14.98323218,.00028709,70.0004,36.7821,268.8358,91.2472,0,U,55962,999,17800,-.86848044E-4,-.1129E-4,0
STARLINK-5924,2023-037BB,2026-06-08T00:18:19.894464,14.98330581,.00028468,69.9998,36.6861,271.4178,88.6655,0,U,55963,999,17800,.57863366E-4,.597E-5,0
STARLINK-5895,2023-037BC,2026-06-08T00:40:08.448384,15.10241628,.00046871,69.9965,29.0774,201.5637,158.5331,0,U,55964,999,17819,.10300351E-2,.16822E-3,0
STARLINK-5894,2023-037BD,2026-06-08T01:30:25.499232,14.98325778,.00029749,69.9996,36.4587,269.1741,90.9077,0,U,55965,999,17801,-.36315534E-4,-.526E-5,0
SES-18,2023-038A,2026-06-07T21:29:32.844192,1.00271668,.00003109,0.0175,322.5110,30.8280,122.2529,0,U,55970,999,1201,0,-.86E-6,0
SES-19,2023-038B,2026-06-08T05:53:51.174816,1.00271614,.00017159,0.0209,302.2722,138.7590,129.1728,0,U,55971,999,1200,0,.103E-5,0
TIANMU-1 03,2023-039A,2026-06-08T07:39:05.807808,15.47032106,.00041138,97.5239,332.9429,120.9236,239.2418,0,U,55973,999,17946,.26571682E-3,.13343E-3,0
TIANMU-1 04,2023-039B,2026-06-08T07:28:50.434176,15.47620656,.00047317,97.5175,332.0887,118.1143,242.0586,0,U,55974,999,17947,.26917364E-3,.13799E-3,0
TIANMU-1 05,2023-039C,2026-06-08T07:10:47.271072,15.46957315,.00038152,97.5217,332.5410,135.6717,224.4839,0,U,55975,999,17944,.26081166E-3,.13061E-3,0
TIANMU-1 06,2023-039D,2026-06-08T07:32:55.587264,15.47528035,.00040306,97.5227,333.1836,132.4106,227.7485,0,U,55976,999,17947,.26807133E-3,.13696E-3,0
COSMOS 2567,2023-040A,2026-06-08T07:13:41.444832,15.24837730,.00027577,97.5888,85.3311,99.7748,260.3801,0,U,55978,999,17870,.14358704E-3,.3491E-4,0
GLOBAL-19,2023-041B,2026-06-07T13:15:03.368448,15.38030479,.00113776,42.0071,258.0671,294.4113,65.5539,0,U,55982,999,18044,.36663703E-3,.13817E-3,0
GLOBAL-5,2023-041C,2026-06-07T00:00:57.952800,15.38179031,.00103374,42.0032,260.8112,287.5684,72.4026,0,U,55983,999,18036,.50756137E-3,.19336E-3,0
STARLINK-5905,2023-042A,2026-06-07T13:53:46.815648,15.27583295,.00017312,43.0031,272.2236,275.3424,84.7230,0,U,55986,999,17743,.51914708E-4,.1167E-4,0
STARLINK-5915,2023-042B,2026-06-08T00:23:16.891008,15.27574467,.0001166,42.9979,269.5011,269.5304,90.5414,0,U,55987,999,17668,.2064887E-5,-.205E-5,0
STARLINK-5916,2023-042C,2026-06-08T00:02:25.967616,15.27574130,.00018673,43.0036,273.6632,270.6582,89.4056,0,U,55988,999,17663,.12650936E-4,.86E-6,0
STARLINK-5947,2023-042D,2026-06-08T00:17:42.655200,15.27596869,.00025316,43.0052,269.4743,292.5063,67.5520,0,U,55989,999,17668,-.17092691E-3,-.4966E-4,0
STARLINK-5946,2023-042E,2026-06-08T00:02:56.084064,15.27570732,.00011714,43.0022,269.3989,273.7787,86.2931,0,U,55990,999,17668,.4418046E-5,-.14E-5,0
STARLINK-5948,2023-042F,2026-06-08T00:20:16.473120,15.27583976,.00013135,43.0051,266.0764,292.6534,67.4179,0,U,55991,999,17672,-.22813412E-3,-.6535E-4,0
STARLINK-5969,2023-042H,2026-06-08T00:12:10.696896,15.27578246,.00016567,42.9983,269.4458,269.2653,90.8009,0,U,55993,999,17668,-.18163337E-4,-.762E-5,0
STARLINK-5956,2023-042J,2026-06-06T01:24:08.104032,15.27576132,.0001821,43.0047,280.6063,271.1317,88.9326,0,U,55994,999,17638,.28921E-5,-.183E-5,0
STARLINK-5903,2023-042L,2026-06-07T23:55:31.278720,15.27585177,.00015396,43.0005,269.3553,271.9234,88.1442,0,U,55996,999,17667,-.34689171E-4,-.1217E-4,0
STARLINK-5902,2023-042N,2026-06-08T00:01:04.608192,15.27573438,.0000952,43.0016,269.3792,260.7980,99.2764,0,U,55998,999,17668,-.3956391E-5,-.371E-5,0
STARLINK-5901,2023-042P,2026-06-07T01:07:34.758048,15.27579025,.0001641,43.0038,275.1208,267.0396,93.0268,0,U,55999,999,17653,.20344E-4,.298E-5,0
STARLINK-5910,2023-042Q,2026-06-08T00:15:52.417440,15.27576792,.00006891,43.0070,269.4511,277.0593,83.0180,0,U,56000,999,17668,.34965221E-4,.7E-5,0
STARLINK-5944,2023-042R,2026-06-08T00:07:59.050848,15.27571135,.0001345,42.9995,273.6787,281.2230,78.8470,0,U,56001,999,17663,.27745117E-4,.501E-5,0
STARLINK-5799,2023-042S,2026-06-08T00:10:20.223264,15.27579388,.00014517,43.0045,269.4252,266.5641,93.5045,0,U,56002,999,17668,-.13989396E-3,-.411E-4,0
STARLINK-5789,2023-042T,2026-06-07T01:18:41.594112,15.27580144,.0001974,43.0031,275.1696,270.4359,89.6266,0,U,56003,999,17653,.41414E-4,.877E-5,0
STARLINK-5787,2023-042U,2026-06-07T15:08:44.209536,15.27572693,.00011327,43.0006,275.1772,267.6440,92.4282,0,U,56004,999,17658,.1636221E-4,.188E-5,0
